ICEYE-X53               
1 64584U 25135BJ  26199.82523214  .00001299  00000+0  10679-3 0  9993
2 64584  97.7358 316.4668 0002084 164.7773 195.3514 15.00902521 58827
ICEYE-X65               
1 66300U 25248H   26199.75068856  .00001432  00000+0  10775-3 0  9990
2 66300  45.4068 328.2022 0005811 217.0085 143.0397 15.07940586 40287
ICEYE-X66               
1 66301U 25248J   26199.74543543  .00001764  00000+0  12485-3 0  9999
2 66301  45.4025 327.2735 0005527 213.3105 146.7430 15.09191418 40278
ICEYE-X67               
1 66302U 25248K   26199.63777366  .00001571  00000+0  11297-3 0  9996
2 66302  45.4061 327.4210 0007003 213.0395 147.0050 15.09172150 40272
ICEYE-X58               
1 66751U 25276CP  26199.77476907  .00001410  00000+0  74049-4 0  9994
2 66751  97.4195 272.5797 0002514 197.1023 163.0126 15.17317699 35204
ICEYE-X59               
1 66752U 25276CQ  26199.74622830  .00002482  00000+0  20004-3 0  9991
2 66752  97.4398 269.6953 0001192 133.2514 226.8810 15.00771251 35004
ICEYE-X60               
1 66753U 25276CR  26199.18014089  .00001767  00000+0  11064-3 0  9992
2 66753  97.4172 270.9282 0000988 277.9557  82.1561 15.10628567 35042
ICEYE-X61               
1 66754U 25276CS  26199.78988192  .00001532  00000+0  77257-4 0  9991
2 66754  97.4191 272.6909 0002402 198.6183 161.4963 15.18620506 35215
ICEYE-X62               
1 66755U 25276CT  26199.73711764  .00002501  00000+0  15704-3 0  9991
2 66755  97.4190 270.9581 0001069 211.7740 148.3425 15.10165971 35091
ICEYE-X63               
1 67372U 26004K   26199.74748737  .00000424  00000+0  51680-4 0  9994
2 67372  97.8015 197.8957 0005176  42.8678 317.2941 14.88352420 27998
ICEYE-X64               
1 67373U 26004L   26199.79705811  .00000545  00000+0  65316-4 0  9991
2 67373  97.8029 197.8623 0007047  44.3532 315.8248 14.87991929 27995
ICEYE-X71               
1 68494U 26067CG  26199.85781558  .00122204  00000+0  12031-1 0  9994
2 68494  97.7619 157.6065 0000237 328.3461  31.7743 14.91414800 16443
ICEYE-X73               
1 68496U 26067CJ  26199.81551953  .00001111  00000+0  11416-3 0  9997
2 68496  97.7624 157.6574 0001842 142.1130 218.0219 14.92356921 16442
ICEYE-X75               
1 68497U 26067CK  26199.82043388  .00000565  00000+0  60975-4 0  9994
2 68497  97.7608 157.6276 0001707 139.3887 220.7460 14.92177289 16447
ICEYE-X74               
1 68500U 26067CN  26199.78829169  .00001089  00000+0  11351-3 0  9998
2 68500  97.7633 157.5524 0000560 324.3069  35.8112 14.91802339 16437
ICEYE-X76               
1 68502U 26067CQ  26199.78429126  .00000422  00000+0  47379-4 0  9999
2 68502  97.7641 157.5667 0000432 272.5029  87.6141 14.91754892 16431
