{"fetched_at":"2026-07-19T07:05:16.284Z","source":"https://celestrak.org/NORAD/elements/gp.php?NAME=ICEYE&FORMAT=JSON","constellation":"iceye","records":[{"OBJECT_NAME":"ICEYE-X53","OBJECT_ID":"2025-135BJ","EPOCH":"2026-07-18T19:48:20.056896","CLASSIFICATION_TYPE":"U","MEAN_MOTION":15.00902521,"ECCENTRICITY":0.0002084,"INCLINATION":97.7358,"RA_OF_ASC_NODE":316.4668,"ARG_OF_PERICENTER":164.7773,"MEAN_ANOMALY":195.3514,"EPHEMERIS_TYPE":0,"NORAD_CAT_ID":64584,"ELEMENT_SET_NO":999,"REV_AT_EPOCH":5882,"BSTAR":0.00010679,"MEAN_MOTION_DOT":0.00001299,"MEAN_MOTION_DDOT":0},{"OBJECT_NAME":"ICEYE-X65","OBJECT_ID":"2025-248H","EPOCH":"2026-07-18T18:00:59.491584","CLASSIFICATION_TYPE":"U","MEAN_MOTION":15.07940586,"ECCENTRICITY":0.0005811,"INCLINATION":45.4068,"RA_OF_ASC_NODE":328.2022,"ARG_OF_PERICENTER":217.0085,"MEAN_ANOMALY":143.0397,"EPHEMERIS_TYPE":0,"NORAD_CAT_ID":66300,"ELEMENT_SET_NO":999,"REV_AT_EPOCH":4028,"BSTAR":0.00010775,"MEAN_MOTION_DOT":0.00001432,"MEAN_MOTION_DDOT":0},{"OBJECT_NAME":"ICEYE-X66","OBJECT_ID":"2025-248J","EPOCH":"2026-07-18T17:53:25.621152","CLASSIFICATION_TYPE":"U","MEAN_MOTION":15.09191418,"ECCENTRICITY":0.0005527,"INCLINATION":45.4025,"RA_OF_ASC_NODE":327.2735,"ARG_OF_PERICENTER":213.3105,"MEAN_ANOMALY":146.743,"EPHEMERIS_TYPE":0,"NORAD_CAT_ID":66301,"ELEMENT_SET_NO":999,"REV_AT_EPOCH":4027,"BSTAR":0.00012485,"MEAN_MOTION_DOT":0.00001764,"MEAN_MOTION_DDOT":0},{"OBJECT_NAME":"ICEYE-X67","OBJECT_ID":"2025-248K","EPOCH":"2026-07-18T15:18:23.644224","CLASSIFICATION_TYPE":"U","MEAN_MOTION":15.0917215,"ECCENTRICITY":0.0007003,"INCLINATION":45.4061,"RA_OF_ASC_NODE":327.421,"ARG_OF_PERICENTER":213.0395,"MEAN_ANOMALY":147.005,"EPHEMERIS_TYPE":0,"NORAD_CAT_ID":66302,"ELEMENT_SET_NO":999,"REV_AT_EPOCH":4027,"BSTAR":0.00011297,"MEAN_MOTION_DOT":0.00001571,"MEAN_MOTION_DDOT":0},{"OBJECT_NAME":"ICEYE-X58","OBJECT_ID":"2025-276CP","EPOCH":"2026-07-18T18:35:40.047648","CLASSIFICATION_TYPE":"U","MEAN_MOTION":15.17317699,"ECCENTRICITY":0.0002514,"INCLINATION":97.4195,"RA_OF_ASC_NODE":272.5797,"ARG_OF_PERICENTER":197.1023,"MEAN_ANOMALY":163.0126,"EPHEMERIS_TYPE":0,"NORAD_CAT_ID":66751,"ELEMENT_SET_NO":999,"REV_AT_EPOCH":3520,"BSTAR":0.000074049,"MEAN_MOTION_DOT":0.0000141,"MEAN_MOTION_DDOT":0},{"OBJECT_NAME":"ICEYE-X59","OBJECT_ID":"2025-276CQ","EPOCH":"2026-07-18T17:54:34.125120","CLASSIFICATION_TYPE":"U","MEAN_MOTION":15.00771251,"ECCENTRICITY":0.0001192,"INCLINATION":97.4398,"RA_OF_ASC_NODE":269.6953,"ARG_OF_PERICENTER":133.2514,"MEAN_ANOMALY":226.881,"EPHEMERIS_TYPE":0,"NORAD_CAT_ID":66752,"ELEMENT_SET_NO":999,"REV_AT_EPOCH":3500,"BSTAR":0.00020004,"MEAN_MOTION_DOT":0.00002482,"MEAN_MOTION_DDOT":0},{"OBJECT_NAME":"ICEYE-X60","OBJECT_ID":"2025-276CR","EPOCH":"2026-07-18T04:19:24.172896","CLASSIFICATION_TYPE":"U","MEAN_MOTION":15.10628567,"ECCENTRICITY":0.0000988,"INCLINATION":97.4172,"RA_OF_ASC_NODE":270.9282,"ARG_OF_PERICENTER":277.9557,"MEAN_ANOMALY":82.1561,"EPHEMERIS_TYPE":0,"NORAD_CAT_ID":66753,"ELEMENT_SET_NO":999,"REV_AT_EPOCH":3504,"BSTAR":0.00011064,"MEAN_MOTION_DOT":0.00001767,"MEAN_MOTION_DDOT":0},{"OBJECT_NAME":"ICEYE-X61","OBJECT_ID":"2025-276CS","EPOCH":"2026-07-18T18:57:25.797888","CLASSIFICATION_TYPE":"U","MEAN_MOTION":15.18620506,"ECCENTRICITY":0.0002402,"INCLINATION":97.4191,"RA_OF_ASC_NODE":272.6909,"ARG_OF_PERICENTER":198.6183,"MEAN_ANOMALY":161.4963,"EPHEMERIS_TYPE":0,"NORAD_CAT_ID":66754,"ELEMENT_SET_NO":999,"REV_AT_EPOCH":3521,"BSTAR":0.000077257,"MEAN_MOTION_DOT":0.00001532,"MEAN_MOTION_DDOT":0},{"OBJECT_NAME":"ICEYE-X62","OBJECT_ID":"2025-276CT","EPOCH":"2026-07-18T17:41:26.964096","CLASSIFICATION_TYPE":"U","MEAN_MOTION":15.10165971,"ECCENTRICITY":0.0001069,"INCLINATION":97.419,"RA_OF_ASC_NODE":270.9581,"ARG_OF_PERICENTER":211.774,"MEAN_ANOMALY":148.3425,"EPHEMERIS_TYPE":0,"NORAD_CAT_ID":66755,"ELEMENT_SET_NO":999,"REV_AT_EPOCH":3509,"BSTAR":0.00015704,"MEAN_MOTION_DOT":0.00002501,"MEAN_MOTION_DDOT":0},{"OBJECT_NAME":"ICEYE-X63","OBJECT_ID":"2026-004K","EPOCH":"2026-07-18T17:56:22.908768","CLASSIFICATION_TYPE":"U","MEAN_MOTION":14.8835242,"ECCENTRICITY":0.0005176,"INCLINATION":97.8015,"RA_OF_ASC_NODE":197.8957,"ARG_OF_PERICENTER":42.8678,"MEAN_ANOMALY":317.2941,"EPHEMERIS_TYPE":0,"NORAD_CAT_ID":67372,"ELEMENT_SET_NO":999,"REV_AT_EPOCH":2799,"BSTAR":0.00005168,"MEAN_MOTION_DOT":0.00000424,"MEAN_MOTION_DDOT":0},{"OBJECT_NAME":"ICEYE-X64","OBJECT_ID":"2026-004L","EPOCH":"2026-07-18T19:07:45.820704","CLASSIFICATION_TYPE":"U","MEAN_MOTION":14.87991929,"ECCENTRICITY":0.0007047,"INCLINATION":97.8029,"RA_OF_ASC_NODE":197.8623,"ARG_OF_PERICENTER":44.3532,"MEAN_ANOMALY":315.8248,"EPHEMERIS_TYPE":0,"NORAD_CAT_ID":67373,"ELEMENT_SET_NO":999,"REV_AT_EPOCH":2799,"BSTAR":0.000065316,"MEAN_MOTION_DOT":0.00000545,"MEAN_MOTION_DDOT":0},{"OBJECT_NAME":"ICEYE-X71","OBJECT_ID":"2026-067CG","EPOCH":"2026-07-18T20:35:15.266112","CLASSIFICATION_TYPE":"U","MEAN_MOTION":14.914148,"ECCENTRICITY":0.0000237,"INCLINATION":97.7619,"RA_OF_ASC_NODE":157.6065,"ARG_OF_PERICENTER":328.3461,"MEAN_ANOMALY":31.7743,"EPHEMERIS_TYPE":0,"NORAD_CAT_ID":68494,"ELEMENT_SET_NO":999,"REV_AT_EPOCH":1644,"BSTAR":0.012031,"MEAN_MOTION_DOT":0.00122204,"MEAN_MOTION_DDOT":0},{"OBJECT_NAME":"ICEYE-X73","OBJECT_ID":"2026-067CJ","EPOCH":"2026-07-18T19:34:20.887392","CLASSIFICATION_TYPE":"U","MEAN_MOTION":14.92356921,"ECCENTRICITY":0.0001842,"INCLINATION":97.7624,"RA_OF_ASC_NODE":157.6574,"ARG_OF_PERICENTER":142.113,"MEAN_ANOMALY":218.0219,"EPHEMERIS_TYPE":0,"NORAD_CAT_ID":68496,"ELEMENT_SET_NO":999,"REV_AT_EPOCH":1644,"BSTAR":0.00011416,"MEAN_MOTION_DOT":0.00001111,"MEAN_MOTION_DDOT":0},{"OBJECT_NAME":"ICEYE-X75","OBJECT_ID":"2026-067CK","EPOCH":"2026-07-18T19:41:25.487232","CLASSIFICATION_TYPE":"U","MEAN_MOTION":14.92177289,"ECCENTRICITY":0.0001707,"INCLINATION":97.7608,"RA_OF_ASC_NODE":157.6276,"ARG_OF_PERICENTER":139.3887,"MEAN_ANOMALY":220.746,"EPHEMERIS_TYPE":0,"NORAD_CAT_ID":68497,"ELEMENT_SET_NO":999,"REV_AT_EPOCH":1644,"BSTAR":0.000060975,"MEAN_MOTION_DOT":0.00000565,"MEAN_MOTION_DDOT":0},{"OBJECT_NAME":"ICEYE-X74","OBJECT_ID":"2026-067CN","EPOCH":"2026-07-18T18:55:08.402016","CLASSIFICATION_TYPE":"U","MEAN_MOTION":14.91802339,"ECCENTRICITY":0.000056,"INCLINATION":97.7633,"RA_OF_ASC_NODE":157.5524,"ARG_OF_PERICENTER":324.3069,"MEAN_ANOMALY":35.8112,"EPHEMERIS_TYPE":0,"NORAD_CAT_ID":68500,"ELEMENT_SET_NO":999,"REV_AT_EPOCH":1643,"BSTAR":0.00011351,"MEAN_MOTION_DOT":0.00001089,"MEAN_MOTION_DDOT":0},{"OBJECT_NAME":"ICEYE-X76","OBJECT_ID":"2026-067CQ","EPOCH":"2026-07-18T18:49:22.764864","CLASSIFICATION_TYPE":"U","MEAN_MOTION":14.91754892,"ECCENTRICITY":0.0000432,"INCLINATION":97.7641,"RA_OF_ASC_NODE":157.5667,"ARG_OF_PERICENTER":272.5029,"MEAN_ANOMALY":87.6141,"EPHEMERIS_TYPE":0,"NORAD_CAT_ID":68502,"ELEMENT_SET_NO":999,"REV_AT_EPOCH":1643,"BSTAR":0.000047379,"MEAN_MOTION_DOT":0.00000422,"MEAN_MOTION_DDOT":0}]}
